CCSDS_OEM_VERS = 2.0
CREATION_DATE  = 2021-12-09T05:06:25.711
ORIGINATOR     = NASA/JSC/FOD/TOPO

META_START
OBJECT_NAME          = ISS
OBJECT_ID            = 1998-067-A
CENTER_NAME          = Earth
REF_FRAME            = EME2000
TIME_SYSTEM          = UTC
START_TIME           = 2021-12-08T15:45:00.000
USEABLE_START_TIME   = 2021-12-08T15:45:00.000
USEABLE_STOP_TIME    = 2021-12-23T15:45:00.000
STOP_TIME            = 2021-12-23T15:45:00.000
META_STOP

COMMENT Source: This file was produced by the TOPO office within FOD at JSC.
COMMENT Units are in kg and m^2
COMMENT MASS=454862.00
COMMENT DRAG_AREA=1492.30
COMMENT DRAG_COEFF=1.00
COMMENT SOLAR_RAD_AREA=0.00
COMMENT SOLAR_RAD_COEFF=0.00
COMMENT Orbits start at the ascending node epoch
COMMENT ISS first asc. node: EPOCH = 2021-12-08T16:35:08.063 $ ORBIT = 3563 $ LAN(DEG) = -126.57224
COMMENT ISS last asc. node : EPOCH = 2021-12-23T14:15:48.072 $ ORBIT = 3794 $ LAN(DEG) = 179.85724
COMMENT Begin sequence of events
COMMENT TRAJECTORY EVENT SUMMARY:
COMMENT 
COMMENT |       EVENT        |       TIG        | ORB |   DV    |   HA    |   HP    |
COMMENT |                    |       GMT        |     |   M/S   |   KM    |   KM    |
COMMENT |                    |                  |     |  (F/S)  |  (NM)   |  (NM)   |
COMMENT =============================================================================
COMMENT  66S Undock            353:23:54:30.000             0.0     424.8     414.2
COMMENT                                                    (0.0)   (229.4)   (223.6)
COMMENT 
COMMENT  SpX-24 launch         355:10:06:28.000             0.0     424.9     414.1
COMMENT                                                    (0.0)   (229.4)   (223.6)
COMMENT 
COMMENT  6R-PAO Undock         355:22:20:00.000             0.0     425.2     413.7
COMMENT                                                    (0.0)   (229.6)   (223.4)
COMMENT 
COMMENT  SpX-24 Docking        356:09:25:08.000             0.0     425.0     413.8
COMMENT                                                    (0.0)   (229.5)   (223.4)
COMMENT 
COMMENT =============================================================================
COMMENT End sequence of events
2021-12-12T10:12:00.000 -4873.525515826320 2889.612032043980 -3758.036156672740 -5.33640939256413 -3.46487227128822 4.25931043703965
2021-12-12T10:16:00.000 -5961.842504095430 1963.249257196100 -2611.449041192960 -3.67724826402021 -4.20793690086996 5.23739982275763
2021-12-12T10:20:00.000 -6616.996864439410 894.260559077854 -1274.606542604050 -1.74869719979436 -4.64600658511323 5.83487719095107
2021-12-12T10:24:00.000 -6790.884441475190 -239.751961058636 155.187146458720 0.30868519218170 -4.74639238698852 6.00710767751026
2021-12-12T10:28:00.000 -6470.577354279180 -1356.309352192630 1573.647488777230 2.34425019383505 -4.50141119482848 5.74097285145871
2021-12-12T10:32:00.000 -5679.354491081690 -2374.165963444600 2877.262344775010 4.20886757118078 -3.92895398838700 5.05598572595041
2021-12-12T10:36:00.000 -4474.957332101310 -3219.318509739250 3970.982380624270 5.76630840376945 -3.07108756622541 4.00267578058116
2021-12-12T10:40:00.000 -2945.232085889090 -3830.445218621770 4775.221029228630 6.90348088359974 -1.99071725789314 2.65849288721081
2021-12-12T10:44:00.000 -1201.556446905470 -4163.335839463880 5231.613287407630 7.53850824539682 -0.76659253135441 1.12168619421941
2021-12-12T10:48:00.000 629.348607795946 -4193.994827279740 5307.139881624090 7.62606772109456 0.51259496682338 -0.49606476068580
2021-12-12T10:52:00.000 2414.571306554800 -3920.282913774600 4996.410548325020 7.16014898910172 1.75446183055375 -2.07754979664730
2021-12-12T10:56:00.000 4024.528816509780 -3362.040339752330 4322.010458324140 6.17434577545694 2.86928884682648 -3.50820908864985
2021-12-12T11:00:00.000 5342.256313421660 -2559.690522372150 3332.901850965760 4.73963721653721 3.77628306962701 -4.68406716320066
2021-12-12T11:04:00.000 6271.883134890790 -1571.393119679280 2100.989079387850 2.95989220954383 4.40934025180503 -5.51913506040331
2021-12-12T11:08:00.000 6745.717026120570 -468.892411059622 715.957488536409 0.96460368485851 4.72212013493444 -5.95218529112894
2021-12-12T11:12:00.000 6729.290382759450 667.701456058954 -721.265905288041 -1.10052987401563 4.69171429623053 -5.95139249941454
2021-12-12T11:16:00.000 6223.976881270110 1755.805401612320 -2105.946169364380 -3.08447118367863 4.32059014398989 -5.51712230658769
2021-12-12T11:20:00.000 5266.846745272840 2716.473556927160 -3337.324447753630 -4.84271752642810 3.63634450733604 -4.68183825946388
2021-12-12T11:24:00.000 3927.772934573790 3480.175153162810 -4326.013011395400 -6.24808772387105 2.68928185870982 -3.50717223021136
2021-12-12T11:28:00.000 2304.154486968660 3991.785287088420 -5000.435418119310 -7.19970144754028 1.54837404321991 -2.07894590582194
2021-12-12T11:32:00.000 513.743422867645 4214.460922313560 -5311.871548657600 -7.62973135981876 0.29605048868285 -0.50062750385459
2021-12-12T11:36:00.000 -1313.839999281710 4132.170946262470 -5237.824455469840 -7.50760736971432 -0.97770300447905 1.11400912664430
2021-12-12T11:40:00.000 -3046.306866182260 3750.778758191240 -4783.558028719580 -6.84176630380585 -2.18142228351660 2.64868908851098
2021-12-12T11:44:00.000 -4558.058496754310 3097.664435697790 -3981.762141338250 -5.67926629531325 -3.22829680203506 3.99244942367752
2021-12-12T11:48:00.000 -5739.173430094810 2219.875816924160 -2890.343972697430 -4.10303080149354 -4.04222421135503 5.04736705695195
2021-12-12T11:52:00.000 -6503.436959767990 1180.871637217720 -1588.419168036950 -2.22661512282804 -4.56342396620412 5.73576014513152
2021-12-12T11:56:00.000 -6794.814282837270 56.013173754264 -170.682254441410 -0.18644643796269 -4.75318160600342 6.00639800835694
2021-12-12T12:00:00.000 -6591.763858809620 -1072.917917605320 1259.502949029670 1.86825001022612 -4.59708714637498 5.83877525257450
2021-12-12T12:04:00.000 -5908.980552577180 -2123.761529729160 2597.759680321510 3.78673451487990 -4.10648611572727 5.24508856869525
2021-12-12T12:08:00.000 -4796.299394255060 -3020.104088469550 3746.494649192340 5.42881579643432 -3.31752572246472 4.26920398102143
2021-12-12T12:12:00.000 -3334.887761347690 -3696.887117917930 4622.083481565150 6.67515132670214 -2.28805807568439 2.98289421756353
2021-12-12T12:16:00.000 -1631.180194331140 -4105.106365259270 5160.938283635650 7.43576312588447 -1.09316211295696 1.48027884166849
2021-12-12T12:20:00.000 190.961115420100 -4215.293516019970 5324.041990933850 7.65621269037875 0.18044955581619 -0.12928890141219
2021-12-12T12:24:00.000 1999.240878205140 -4019.559057727050 5099.653812224150 7.32098067114975 1.44073980476863 -1.72919933596226
2021-12-12T12:28:00.000 3662.409802084200 -3532.104486275770 4504.093521902160 6.45425482431818 2.59669746670766 -3.20356856944138
2021-12-12T12:32:00.000 5059.663028913440 -2788.223899394460 3580.595811609870 5.11842371674666 3.56460793192523 -4.44530670577453
2021-12-12T12:36:00.000 6089.374495948490 -1841.821884153790 2396.273833081300 3.41004789746381 4.27402780561783 -5.36373788775422
2021-12-12T12:40:00.000 6676.571830161200 -761.582906422410 1037.332058847840 1.45337267471153 4.67305764868686 -5.89150616958692
2021-12-12T12:44:00.000 6778.533151367410 374.013812393195 -397.215362476001 -0.60878979022958 4.73252118202353 -5.98991658405015
2021-12-12T12:48:00.000 6387.980782444690 1482.456565508690 -1802.830940815800 -2.62572339624513 4.44820969899962 -5.65195755089506
2021-12-12T12:52:00.000 5533.614715617440 2483.285045622070 -3077.191748390000 -4.45030323211968 3.84132286577983 -4.90296709613055
2021-12-12T12:56:00.000 4277.868564952110 3304.013226058840 -4127.736174251310 -5.95028811881946 2.95662076517225 -3.79834995885619
2021-12-12T13:00:00.000 2712.155970044650 3885.364563565070 -4878.369921886250 -7.01784145639510 1.85868552366937 -2.41899868341033
2021-12-12T13:04:00.000 950.093015553911 4185.455798776220 -5274.851084741200 -7.57676881708676 0.62697579106837 -0.86499511921735
2021-12-12T13:08:00.000 -880.719915599248 4182.691845095310 -5288.551880585720 -7.58733472789237 -0.64989605538666 0.75155652606101
2021-12-12T13:12:00.000 -2647.782568374470 3877.231714246330 -4918.421764630200 -7.04863743629959 -1.88029253323079 2.31425691161027
2021-12-12T13:16:00.000 -4223.063727340930 3290.980302933180 -4191.073174223930 -5.99865092317410 -2.97563518269132 3.71027881678754
2021-12-12T13:20:00.000 -5492.123889861100 2466.126234769470 -3158.993421683500 -4.51210626344589 -3.85648476417678 4.83810861703497
2021-12-12T13:24:00.000 -6362.428850843240 1462.241717840430 -1896.928427374140 -2.69582813694429 -4.45832720319870 5.61493749725048
2021-12-12T13:28:00.000 -6770.242604973820 352.080305142934 -496.599784815208 -0.68158748983145 -4.73657838434542 5.98307396089380
2021-12-12T13:32:00.000 -6685.517516630740 -783.688355628267 939.949741496039 1.38343196574408 -4.67034359884607 5.91483378939058
2021-12-12T13:36:00.000 -6114.259340941030 -1862.427332484230 2307.900754285860 3.34789927508383 -4.26424365975812 5.41493042413510
2021-12-12T13:40:00.000 -5098.128131522280 -2805.662741771360 3507.455559021240 5.06797043509724 -3.54812664353499 4.52024417404764
2021-12-12T13:44:00.000 -3711.277450080820 -3544.888876098860 4451.249693071760 6.41842923840430 -2.57463628735577 3.29674339735699
2021-12-12T13:48:00.000 -2054.746942606600 -4026.552289558150 5070.709131081840 7.30172759635817 -1.41488387919930 1.83401670574879
2021-12-12T13:52:00.000 -248.996875317992 -4215.846676305280 5320.934029584730 7.65445581020289 -0.15304053477552 0.23855362074164
2021-12-12T13:56:00.000 1574.830837386740 -4099.144598931130 5183.852424638580 7.45151064400509 1.11962230524001 -1.37390849883157
2021-12-12T14:00:00.000 3284.350078336730 -3684.930609902920 4669.458027984600 6.70763509094694 2.31119334655160 -2.88659965122255
2021-12-12T14:04:00.000 4755.405443815820 -3003.188610823530 3815.090359650380 5.47632403755815 3.33544695626773 -4.18971453349921
